[{"OBJECT_NAME":"ONEWEB-0342","OBJECT_ID":"2021-083Y","EPOCH":"2025-07-30T14:40:58.531584","MEAN_MOTION":13.2077245,"ECCENTRICITY":0.0001965,"INCLINATION":87.9283,"RA_OF_ASC_NODE":338.506,"ARG_OF_PERICENTER":94.9094,"MEAN_ANOMALY":265.2263,"EPHEMERIS_TYPE":0,"CLASSIFICATION_TYPE":"U","NORAD_CAT_ID":49208,"ELEMENT_SET_NO":999,"REV_AT_EPOCH":19433,"BSTAR":0.000331,"MEAN_MOTION_DOT":1.48e-6,"MEAN_MOTION_DDOT":0},{"OBJECT_NAME":"ONEWEB-0343","OBJECT_ID":"2021-083Z","EPOCH":"2025-07-30T13:43:39.668160","MEAN_MOTION":13.18687663,"ECCENTRICITY":0.0001564,"INCLINATION":87.9126,"RA_OF_ASC_NODE":39.3346,"ARG_OF_PERICENTER":69.9653,"MEAN_ANOMALY":290.1648,"EPHEMERIS_TYPE":0,"CLASSIFICATION_TYPE":"U","NORAD_CAT_ID":49209,"ELEMENT_SET_NO":999,"REV_AT_EPOCH":18765,"BSTAR":-3.804e-5,"MEAN_MOTION_DOT":-2.0e-8,"MEAN_MOTION_DDOT":0},{"OBJECT_NAME":"ONEWEB-0344","OBJECT_ID":"2021-083AA","EPOCH":"2025-07-30T11:57:10.891008","MEAN_MOTION":13.13469316,"ECCENTRICITY":0.0001343,"INCLINATION":87.8967,"RA_OF_ASC_NODE":24.1856,"ARG_OF_PERICENTER":88.1921,"MEAN_ANOMALY":271.9362,"EPHEMERIS_TYPE":0,"CLASSIFICATION_TYPE":"U","NORAD_CAT_ID":49210,"ELEMENT_SET_NO":999,"REV_AT_EPOCH":18866,"BSTAR":-0.00050093,"MEAN_MOTION_DOT":-1.7e-6,"MEAN_MOTION_DDOT":0},{"OBJECT_NAME":"ONEWEB-0345","OBJECT_ID":"2021-083AB","EPOCH":"2025-07-30T13:34:41.604384","MEAN_MOTION":13.13468509,"ECCENTRICITY":0.0001295,"INCLINATION":87.8965,"RA_OF_ASC_NODE":24.1239,"ARG_OF_PERICENTER":87.7777,"MEAN_ANOMALY":272.3501,"EPHEMERIS_TYPE":0,"CLASSIFICATION_TYPE":"U","NORAD_CAT_ID":49211,"ELEMENT_SET_NO":999,"REV_AT_EPOCH":18868,"BSTAR":0.00022948,"MEAN_MOTION_DOT":9.7e-7,"MEAN_MOTION_DDOT":0},{"OBJECT_NAME":"ONEWEB-0346","OBJECT_ID":"2021-083AC","EPOCH":"2025-07-30T13:56:43.065600","MEAN_MOTION":13.18686155,"ECCENTRICITY":0.0001873,"INCLINATION":87.9127,"RA_OF_ASC_NODE":39.355,"ARG_OF_PERICENTER":109.2141,"MEAN_ANOMALY":250.9193,"EPHEMERIS_TYPE":0,"CLASSIFICATION_TYPE":"U","NORAD_CAT_ID":49212,"ELEMENT_SET_NO":999,"REV_AT_EPOCH":18888,"BSTAR":-6.054e-6,"MEAN_MOTION_DOT":1.1e-7,"MEAN_MOTION_DDOT":0},{"OBJECT_NAME":"ONEWEB-0348","OBJECT_ID":"2021-083AD","EPOCH":"2025-07-30T14:27:19.747296","MEAN_MOTION":13.20773252,"ECCENTRICITY":0.0001475,"INCLINATION":87.9287,"RA_OF_ASC_NODE":338.5184,"ARG_OF_PERICENTER":114.759,"MEAN_ANOMALY":245.3697,"EPHEMERIS_TYPE":0,"CLASSIFICATION_TYPE":"U","NORAD_CAT_ID":49213,"ELEMENT_SET_NO":999,"REV_AT_EPOCH":19436,"BSTAR":0.00024763,"MEAN_MOTION_DOT":1.14e-6,"MEAN_MOTION_DDOT":0},{"OBJECT_NAME":"ONEWEB-0350","OBJECT_ID":"2021-083AE","EPOCH":"2025-07-30T11:58:23.433312","MEAN_MOTION":13.13468781,"ECCENTRICITY":0.0001458,"INCLINATION":87.8968,"RA_OF_ASC_NODE":24.1284,"ARG_OF_PERICENTER":91.5116,"MEAN_ANOMALY":268.618,"EPHEMERIS_TYPE":0,"CLASSIFICATION_TYPE":"U","NORAD_CAT_ID":49214,"ELEMENT_SET_NO":999,"REV_AT_EPOCH":18870,"BSTAR":-0.00041356,"MEAN_MOTION_DOT":-1.38e-6,"MEAN_MOTION_DDOT":0},{"OBJECT_NAME":"ONEWEB-0351","OBJECT_ID":"2021-083AF","EPOCH":"2025-07-30T14:17:59.828640","MEAN_MOTION":13.20800758,"ECCENTRICITY":0.0002222,"INCLINATION":87.9294,"RA_OF_ASC_NODE":338.5025,"ARG_OF_PERICENTER":74.6329,"MEAN_ANOMALY":285.505,"EPHEMERIS_TYPE":0,"CLASSIFICATION_TYPE":"U","NORAD_CAT_ID":49215,"ELEMENT_SET_NO":999,"REV_AT_EPOCH":19563,"BSTAR":0.0081123,"MEAN_MOTION_DOT":3.314e-5,"MEAN_MOTION_DDOT":0},{"OBJECT_NAME":"ONEWEB-0352","OBJECT_ID":"2021-083AG","EPOCH":"2025-07-30T13:20:04.170048","MEAN_MOTION":13.13469326,"ECCENTRICITY":0.000192,"INCLINATION":87.8967,"RA_OF_ASC_NODE":24.159,"ARG_OF_PERICENTER":77.7675,"MEAN_ANOMALY":282.3669,"EPHEMERIS_TYPE":0,"CLASSIFICATION_TYPE":"U","NORAD_CAT_ID":49216,"ELEMENT_SET_NO":999,"REV_AT_EPOCH":18880,"BSTAR":0.00075561,"MEAN_MOTION_DOT":2.89e-6,"MEAN_MOTION_DDOT":0},{"OBJECT_NAME":"ONEWEB-0354","OBJECT_ID":"2021-083AH","EPOCH":"2025-07-30T14:54:36.050976","MEAN_MOTION":13.20771324,"ECCENTRICITY":0.0001589,"INCLINATION":87.9294,"RA_OF_ASC_NODE":338.4963,"ARG_OF_PERICENTER":101.1519,"MEAN_ANOMALY":258.9793,"EPHEMERIS_TYPE":0,"CLASSIFICATION_TYPE":"U","NORAD_CAT_ID":49217,"ELEMENT_SET_NO":999,"REV_AT_EPOCH":19436,"BSTAR":0.00016617,"MEAN_MOTION_DOT":8.1e-7,"MEAN_MOTION_DDOT":0},{"OBJECT_NAME":"ONEWEB-0355","OBJECT_ID":"2021-083AJ","EPOCH":"2025-07-30T12:12:00.061920","MEAN_MOTION":13.13470767,"ECCENTRICITY":0.0001656,"INCLINATION":87.8972,"RA_OF_ASC_NODE":24.1671,"ARG_OF_PERICENTER":85.0812,"MEAN_ANOMALY":275.0507,"EPHEMERIS_TYPE":0,"CLASSIFICATION_TYPE":"U","NORAD_CAT_ID":49218,"ELEMENT_SET_NO":999,"REV_AT_EPOCH":18867,"BSTAR":-0.0007564,"MEAN_MOTION_DOT":-2.63e-6,"MEAN_MOTION_DDOT":0},{"OBJECT_NAME":"ONEWEB-0357","OBJECT_ID":"2021-083AK","EPOCH":"2025-07-30T14:50:03.594624","MEAN_MOTION":13.20771912,"ECCENTRICITY":0.0001802,"INCLINATION":87.9283,"RA_OF_ASC_NODE":338.5011,"ARG_OF_PERICENTER":92.8497,"MEAN_ANOMALY":267.2842,"EPHEMERIS_TYPE":0,"CLASSIFICATION_TYPE":"U","NORAD_CAT_ID":49219,"ELEMENT_SET_NO":999,"REV_AT_EPOCH":19436,"BSTAR":0.00010578,"MEAN_MOTION_DOT":5.6e-7,"MEAN_MOTION_DDOT":0},{"OBJECT_NAME":"ONEWEB-0332","OBJECT_ID":"2021-090A","EPOCH":"2025-07-30T14:54:13.624128","MEAN_MOTION":13.14504272,"ECCENTRICITY":0.0002031,"INCLINATION":87.9069,"RA_OF_ASC_NODE":353.7068,"ARG_OF_PERICENTER":91.7443,"MEAN_ANOMALY":268.3919,"EPHEMERIS_TYPE":0,"CLASSIFICATION_TYPE":"U","NORAD_CAT_ID":49279,"ELEMENT_SET_NO":999,"REV_AT_EPOCH":18533,"BSTAR":0.00069773,"MEAN_MOTION_DOT":2.71e-6,"MEAN_MOTION_DDOT":0},{"OBJECT_NAME":"ONEWEB-0347","OBJECT_ID":"2021-090B","EPOCH":"2025-07-30T20:03:41.265792","MEAN_MOTION":13.20771118,"ECCENTRICITY":0.0002262,"INCLINATION":87.9291,"RA_OF_ASC_NODE":338.468,"ARG_OF_PERICENTER":98.138,"MEAN_ANOMALY":262.001,"EPHEMERIS_TYPE":0,"CLASSIFICATION_TYPE":"U","NORAD_CAT_ID":49280,"ELEMENT_SET_NO":999,"REV_AT_EPOCH":18862,"BSTAR":0.00013905,"MEAN_MOTION_DOT":7.0e-7,"MEAN_MOTION_DDOT":0},{"OBJECT_NAME":"ONEWEB-0349","OBJECT_ID":"2021-090C","EPOCH":"2025-07-30T15:21:52.988832","MEAN_MOTION":13.20770806,"ECCENTRICITY":0.0001827,"INCLINATION":87.9283,"RA_OF_ASC_NODE":338.5114,"ARG_OF_PERICENTER":95.5389,"MEAN_ANOMALY":264.5953,"EPHEMERIS_TYPE":0,"CLASSIFICATION_TYPE":"U","NORAD_CAT_ID":49281,"ELEMENT_SET_NO":999,"REV_AT_EPOCH":18738,"BSTAR":5.4198e-5,"MEAN_MOTION_DOT":3.5e-7,"MEAN_MOTION_DDOT":0},{"OBJECT_NAME":"ONEWEB-0353","OBJECT_ID":"2021-090D","EPOCH":"2025-07-30T11:03:35.235072","MEAN_MOTION":13.14504201,"ECCENTRICITY":0.0002072,"INCLINATION":87.9068,"RA_OF_ASC_NODE":353.7254,"ARG_OF_PERICENTER":94.1805,"MEAN_ANOMALY":265.9562,"EPHEMERIS_TYPE":0,"CLASSIFICATION_TYPE":"U","NORAD_CAT_ID":49282,"ELEMENT_SET_NO":999,"REV_AT_EPOCH":18531,"BSTAR":0.00065113,"MEAN_MOTION_DOT":2.54e-6,"MEAN_MOTION_DDOT":0},{"OBJECT_NAME":"ONEWEB-0356","OBJECT_ID":"2021-090E","EPOCH":"2025-07-30T09:52:19.911648","MEAN_MOTION":13.20771069,"ECCENTRICITY":0.0002359,"INCLINATION":87.9286,"RA_OF_ASC_NODE":338.5477,"ARG_OF_PERICENTER":119.3395,"MEAN_ANOMALY":240.7974,"EPHEMERIS_TYPE":0,"CLASSIFICATION_TYPE":"U","NORAD_CAT_ID":49283,"ELEMENT_SET_NO":999,"REV_AT_EPOCH":18735,"BSTAR":-9.3188e-5,"MEAN_MOTION_DOT":-2.5e-7,"MEAN_MOTION_DDOT":0}]
