ONEWEB-0342             
1 49208U 21083Y   25211.61178856  .00000148  00000+0  33100-3 0  9992
2 49208  87.9283 338.5060 0001965  94.9094 265.2263 13.20772450194330
ONEWEB-0343             
1 49209U 21083Z   25211.57198690 -.00000002  00000+0 -38040-4 0  9996
2 49209  87.9126  39.3346 0001564  69.9653 290.1648 13.18687663187657
ONEWEB-0344             
1 49210U 21083AA  25211.49804272 -.00000170  00000+0 -50093-3 0  9996
2 49210  87.8967  24.1856 0001343  88.1921 271.9362 13.13469316188665
ONEWEB-0345             
1 49211U 21083AB  25211.56575931  .00000097  00000+0  22948-3 0  9996
2 49211  87.8965  24.1239 0001295  87.7777 272.3501 13.13468509188684
ONEWEB-0346             
1 49212U 21083AC  25211.58105400  .00000011  00000+0 -60540-5 0  9998
2 49212  87.9127  39.3550 0001873 109.2141 250.9193 13.18686155188882
ONEWEB-0348             
1 49213U 21083AD  25211.60231189  .00000114  00000+0  24763-3 0  9994
2 49213  87.9287 338.5184 0001475 114.7590 245.3697 13.20773252194369
ONEWEB-0350             
1 49214U 21083AE  25211.49888233 -.00000138  00000+0 -41356-3 0  9995
2 49214  87.8968  24.1284 0001458  91.5116 268.6180 13.13468781188707
ONEWEB-0351             
1 49215U 21083AF  25211.59583135  .00003314  00000+0  81123-2 0  9992
2 49215  87.9294 338.5025 0002222  74.6329 285.5050 13.20800758195630
ONEWEB-0352             
1 49216U 21083AG  25211.55560382  .00000289  00000+0  75561-3 0  9996
2 49216  87.8967  24.1590 0001920  77.7675 282.3669 13.13469326188800
ONEWEB-0354             
1 49217U 21083AH  25211.62125059  .00000081  00000+0  16617-3 0  9990
2 49217  87.9294 338.4963 0001589 101.1519 258.9793 13.20771324194367
ONEWEB-0355             
1 49218U 21083AJ  25211.50833405 -.00000263  00000+0 -75640-3 0  9994
2 49218  87.8972  24.1671 0001656  85.0812 275.0507 13.13470767188675
ONEWEB-0357             
1 49219U 21083AK  25211.61809716  .00000056  00000+0  10578-3 0  9992
2 49219  87.9283 338.5011 0001802  92.8497 267.2842 13.20771912194362
ONEWEB-0332             
1 49279U 21090A   25211.62099102  .00000271  00000+0  69773-3 0  9997
2 49279  87.9069 353.7068 0002031  91.7443 268.3919 13.14504272185335
ONEWEB-0347             
1 49280U 21090B   25211.83589428  .00000070  00000+0  13905-3 0  9990
2 49280  87.9291 338.4680 0002262  98.1380 262.0010 13.20771118188621
ONEWEB-0349             
1 49281U 21090C   25211.64019663  .00000035  00000+0  54198-4 0  9990
2 49281  87.9283 338.5114 0001827  95.5389 264.5953 13.20770806187380
ONEWEB-0353             
1 49282U 21090D   25211.46082448  .00000254  00000+0  65113-3 0  9993
2 49282  87.9068 353.7254 0002072  94.1805 265.9562 13.14504201185316
ONEWEB-0356             
1 49283U 21090E   25211.41134157 -.00000025  00000+0 -93188-4 0  9996
2 49283  87.9286 338.5477 0002359 119.3395 240.7974 13.20771069187358
